{
"type": "FeatureCollection",
"name": "Réseau 5 novembre",
"crs": { "type": "name", "properties": { "name": "urn:ogc:def:crs:OGC:1.3:CRS84" } },
"features": [
{ "type": "Feature", "properties": { "Nom": "3e Avenue / 8e Rue", "Fermeture": null }, "geometry": { "type": "Point", "coordinates": [ -71.228468808020949, 46.825065181929801 ] } },
{ "type": "Feature", "properties": { "Nom": "Gare du Palais", "Fermeture": null }, "geometry": { "type": "Point", "coordinates": [ -71.212854728543931, 46.817553052236249 ] } },
{ "type": "Feature", "properties": { "Nom": "Traverse", "Fermeture": "6" }, "geometry": { "type": "Point", "coordinates": [ -71.202286990200903, 46.812102918667527 ] } },
{ "type": "Feature", "properties": { "Nom": "Hôtel de ville", "Fermeture": null }, "geometry": { "type": "Point", "coordinates": [ -71.20887711664264, 46.813906296802408 ] } },
{ "type": "Feature", "properties": { "Nom": "Place Jacques-Cartier", "Fermeture": null }, "geometry": { "type": "Point", "coordinates": [ -71.224859947341386, 46.814317311705061 ] } },
{ "type": "Feature", "properties": { "Nom": "Parc Durocher", "Fermeture": "6" }, "geometry": { "type": "Point", "coordinates": [ -71.23880399230066, 46.811802617490926 ] } },
{ "type": "Feature", "properties": { "Nom": "Église Saint-Jean-Baptiste", "Fermeture": null }, "geometry": { "type": "Point", "coordinates": [ -71.222582054876185, 46.808912702869328 ] } },
{ "type": "Feature", "properties": { "Nom": "Parc de la Francophonie", "Fermeture": null }, "geometry": { "type": "Point", "coordinates": [ -71.215799168573525, 46.807824408649978 ] } },
{ "type": "Feature", "properties": { "Nom": "Fraser / Cartier", "Fermeture": null }, "geometry": { "type": "Point", "coordinates": [ -71.225710095831673, 46.803839094573782 ] } },
{ "type": "Feature", "properties": { "Nom": "Eymard / Sainte-Foy", "Fermeture": null }, "geometry": { "type": "Point", "coordinates": [ -71.25836060746677, 46.793365135273262 ] } },
{ "type": "Feature", "properties": { "Nom": "De Callieres / Marguerite-Bourgeoys", "Fermeture": null }, "geometry": { "type": "Point", "coordinates": [ -71.252508768459236, 46.791424983763669 ] } },
{ "type": "Feature", "properties": { "Nom": "Marie-Rollet / Marguerite-Bourgeoys", "Fermeture": null }, "geometry": { "type": "Point", "coordinates": [ -71.25420383509973, 46.794003109691097 ] } },
{ "type": "Feature", "properties": { "Nom": "Raymond-Casgrain / Ernest-Gagnon", "Fermeture": null }, "geometry": { "type": "Point", "coordinates": [ -71.249043400984931, 46.795041295041734 ] } },
{ "type": "Feature", "properties": { "Nom": "Patro Laval", "Fermeture": null }, "geometry": { "type": "Point", "coordinates": [ -71.242239624078607, 46.812347818286284 ] } },
{ "type": "Feature", "properties": { "Nom": "Bibliothèque Collège-des-Jésuites", "Fermeture": null }, "geometry": { "type": "Point", "coordinates": [ -71.243515163181712, 46.795257593944172 ] } },
{ "type": "Feature", "properties": { "Nom": "Père-Marquette / Des Braves", "Fermeture": null }, "geometry": { "type": "Point", "coordinates": [ -71.239447121281771, 46.798732932865896 ] } },
{ "type": "Feature", "properties": { "Nom": "Parc des Braves", "Fermeture": null }, "geometry": { "type": "Point", "coordinates": [ -71.239075332991717, 46.801274758031049 ] } },
{ "type": "Feature", "properties": { "Nom": "Père-Marquette / De Manrèse", "Fermeture": null }, "geometry": { "type": "Point", "coordinates": [ -71.232314227092715, 46.802959258626302 ] } },
{ "type": "Feature", "properties": { "Nom": "Parc Lockwell", "Fermeture": null }, "geometry": { "type": "Point", "coordinates": [ -71.226904411162877, 46.806190026945906 ] } },
{ "type": "Feature", "properties": { "Nom": "Musée national des beaux-arts", "Fermeture": null }, "geometry": { "type": "Point", "coordinates": [ -71.226156129425689, 46.801429466282229 ] } },
{ "type": "Feature", "properties": { "Nom": "Grand Théâtre de Québec", "Fermeture": null }, "geometry": { "type": "Point", "coordinates": [ -71.221002361859107, 46.806402989788701 ] } },
{ "type": "Feature", "properties": { "Nom": "Parc de l'Esplanade", "Fermeture": "6" }, "geometry": { "type": "Point", "coordinates": [ -71.211782896739294, 46.810928212538656 ] } },
{ "type": "Feature", "properties": { "Nom": "Parc Montmorency", "Fermeture": "6" }, "geometry": { "type": "Point", "coordinates": [ -71.204809416099224, 46.813905366740556 ] } },
{ "type": "Feature", "properties": { "Nom": "Place des Canotiers", "Fermeture": null }, "geometry": { "type": "Point", "coordinates": [ -71.201200550728558, 46.815012085190787 ] } },
{ "type": "Feature", "properties": { "Nom": "Bassin Louise", "Fermeture": null }, "geometry": { "type": "Point", "coordinates": [ -71.208925723614797, 46.817719479510835 ] } },
{ "type": "Feature", "properties": { "Nom": "Parc Saint-Matthew", "Fermeture": null }, "geometry": { "type": "Point", "coordinates": [ -71.217639574852058, 46.811032466544589 ] } },
{ "type": "Feature", "properties": { "Nom": "Parc John-Munn", "Fermeture": null }, "geometry": { "type": "Point", "coordinates": [ -71.218955068729599, 46.817903716035289 ] } },
{ "type": "Feature", "properties": { "Nom": "Saint-Vallier E. / Caron", "Fermeture": "6" }, "geometry": { "type": "Point", "coordinates": [ -71.227043135909312, 46.811565555252862 ] } },
{ "type": "Feature", "properties": { "Nom": "Saint-Joseph E. / Caron", "Fermeture": null }, "geometry": { "type": "Point", "coordinates": [ -71.228699441647848, 46.812895396196069 ] } },
{ "type": "Feature", "properties": { "Nom": "Place Roger-Lemelin", "Fermeture": null }, "geometry": { "type": "Point", "coordinates": [ -71.236052450648188, 46.807056323408716 ] } },
{ "type": "Feature", "properties": { "Nom": "Parc Victoria - S.-Napoléon-Parent", "Fermeture": null }, "geometry": { "type": "Point", "coordinates": [ -71.235503058098729, 46.815042840546042 ] } },
{ "type": "Feature", "properties": { "Nom": "Parc de la Pointe-aux-Lièvres", "Fermeture": "6" }, "geometry": { "type": "Point", "coordinates": [ -71.235143519407856, 46.821288992851954 ] } },
{ "type": "Feature", "properties": { "Nom": "3e Rue / 3e Avenue", "Fermeture": null }, "geometry": { "type": "Point", "coordinates": [ -71.225496774847187, 46.822123609172735 ] } },
{ "type": "Feature", "properties": { "Nom": "13e Rue / 1re Avenue", "Fermeture": null }, "geometry": { "type": "Point", "coordinates": [ -71.234617854234358, 46.827185677353192 ] } },
{ "type": "Feature", "properties": { "Nom": "Cégep Limoilou - Limoilou", "Fermeture": null }, "geometry": { "type": "Point", "coordinates": [ -71.22839792749923, 46.83054213631992 ] } },
{ "type": "Feature", "properties": { "Nom": "Parc de l'Anse-à-Cartier", "Fermeture": null }, "geometry": { "type": "Point", "coordinates": [ -71.234943724222219, 46.824991487090273 ] } },
{ "type": "Feature", "properties": { "Nom": "ExpoCité - Grand Marché", "Fermeture": null }, "geometry": { "type": "Point", "coordinates": [ -71.24410112427708, 46.829456922423859 ] } },
{ "type": "Feature", "properties": { "Nom": "Saint-Vallier E. / Lépine", "Fermeture": "6" }, "geometry": { "type": "Point", "coordinates": [ -71.219350226291553, 46.813461035683915 ] } },
{ "type": "Feature", "properties": { "Nom": "Château Frontenac", "Fermeture": "6" }, "geometry": { "type": "Point", "coordinates": [ -71.2050949196895, 46.811405101510353 ] } },
{ "type": "Feature", "properties": { "Nom": "Lavigueur / Sainte-Geneviève", "Fermeture": null }, "geometry": { "type": "Point", "coordinates": [ -71.220473861284631, 46.812386755020093 ] } },
{ "type": "Feature", "properties": { "Nom": "Brown / Père-Marquette", "Fermeture": null }, "geometry": { "type": "Point", "coordinates": [ -71.235466171550229, 46.801101999238035 ] } },
{ "type": "Feature", "properties": { "Nom": "Raymond-Casgrain / Cardinal-Rouleau", "Fermeture": null }, "geometry": { "type": "Point", "coordinates": [ -71.244255969341026, 46.797517672545048 ] } },
{ "type": "Feature", "properties": { "Nom": "Hélène-Boulle / Du Bon-Air", "Fermeture": null }, "geometry": { "type": "Point", "coordinates": [ -71.264692129106535, 46.78942555021009 ] } },
{ "type": "Feature", "properties": { "Nom": "Parc Myrand", "Fermeture": null }, "geometry": { "type": "Point", "coordinates": [ -71.266304179692355, 46.787313274439178 ] } },
{ "type": "Feature", "properties": { "Nom": "Ulaval - Charles-De Koninck", "Fermeture": null }, "geometry": { "type": "Point", "coordinates": [ -71.272652034265505, 46.780341266529447 ] } },
{ "type": "Feature", "properties": { "Nom": "Ulaval - Alphonse-Desjardins", "Fermeture": null }, "geometry": { "type": "Point", "coordinates": [ -71.270554924801701, 46.778926680135491 ] } },
{ "type": "Feature", "properties": { "Nom": "Ulaval - PEPS", "Fermeture": null }, "geometry": { "type": "Point", "coordinates": [ -71.276317412706263, 46.783275222787196 ] } },
{ "type": "Feature", "properties": { "Nom": "Cégep de Sainte-Foy", "Fermeture": null }, "geometry": { "type": "Point", "coordinates": [ -71.285241466285086, 46.786367484499223 ] } },
{ "type": "Feature", "properties": { "Nom": "Montmagny / De la Pente-Douce", "Fermeture": null }, "geometry": { "type": "Point", "coordinates": [ -71.238832818549284, 46.804271000590084 ] } },
{ "type": "Feature", "properties": { "Nom": "Raoul-Jobin / Marie-de-l'Incarnation", "Fermeture": null }, "geometry": { "type": "Point", "coordinates": [ -71.244300951680287, 46.807531776437628 ] } },
{ "type": "Feature", "properties": { "Nom": "Bayard / Boisseau", "Fermeture": "6" }, "geometry": { "type": "Point", "coordinates": [ -71.238001378258332, 46.809847143374277 ] } },
{ "type": "Feature", "properties": { "Nom": "Signaï / Christophe-Colomb", "Fermeture": null }, "geometry": { "type": "Point", "coordinates": [ -71.231673421442736, 46.809818056944515 ] } },
{ "type": "Feature", "properties": { "Nom": "Bourdages / Monseigneur-Plessis", "Fermeture": null }, "geometry": { "type": "Point", "coordinates": [ -71.24079632966874, 46.817361347473074 ] } },
{ "type": "Feature", "properties": { "Nom": "11e Rue / 3e Avenue", "Fermeture": null }, "geometry": { "type": "Point", "coordinates": [ -71.23058504529962, 46.827093777460973 ] } },
{ "type": "Feature", "properties": { "Nom": "Perrault / 24e Rue", "Fermeture": null }, "geometry": { "type": "Point", "coordinates": [ -71.231759285160166, 46.840812475783686 ] } },
{ "type": "Feature", "properties": { "Nom": "Parc Bardy", "Fermeture": null }, "geometry": { "type": "Point", "coordinates": [ -71.224951768251572, 46.842717314524883 ] } },
{ "type": "Feature", "properties": { "Nom": "De la Trinité / De Villebon", "Fermeture": null }, "geometry": { "type": "Point", "coordinates": [ -71.221170519286176, 46.834092635735217 ] } },
{ "type": "Feature", "properties": { "Nom": "Domaine de Maizerets", "Fermeture": null }, "geometry": { "type": "Point", "coordinates": [ -71.216036021874586, 46.836549083615516 ] } },
{ "type": "Feature", "properties": { "Nom": "Des Bouleaux O. / Du Colisée", "Fermeture": null }, "geometry": { "type": "Point", "coordinates": [ -71.247446051428582, 46.834847653998636 ] } },
{ "type": "Feature", "properties": { "Nom": "De la Place Philippe / Richer", "Fermeture": null }, "geometry": { "type": "Point", "coordinates": [ -71.267984564941031, 46.791523388199458 ] } },
{ "type": "Feature", "properties": { "Nom": "Parc Victoria - De la Maréchaussée", "Fermeture": "6" }, "geometry": { "type": "Point", "coordinates": [ -71.230814826722593, 46.817666254774807 ] } },
{ "type": "Feature", "properties": { "Nom": "Cartier-Brébeuf", "Fermeture": "6" }, "geometry": { "type": "Point", "coordinates": [ -71.240395205755945, 46.824301490734449 ] } },
{ "type": "Feature", "properties": { "Nom": "CFP de Limoilou", "Fermeture": null }, "geometry": { "type": "Point", "coordinates": [ -71.232055667261378, 46.834446633348293 ] } },
{ "type": "Feature", "properties": { "Nom": "Des Peupliers E. / 4e Avenue", "Fermeture": null }, "geometry": { "type": "Point", "coordinates": [ -71.240527045220617, 46.840100230046389 ] } },
{ "type": "Feature", "properties": { "Nom": "Chapdelaine / De Belmont", "Fermeture": null }, "geometry": { "type": "Point", "coordinates": [ -71.274496423833014, 46.790714664467835 ] } },
{ "type": "Feature", "properties": { "Nom": "Musée des plaines d'Abraham", "Fermeture": "6" }, "geometry": { "type": "Point", "coordinates": [ -71.212423051142892, 46.807439415327117 ] } },
{ "type": "Feature", "properties": { "Nom": "1re Rue / 6e Avenue", "Fermeture": "6" }, "geometry": { "type": "Point", "coordinates": [ -71.220891881219416, 46.822167752325164 ] } },
{ "type": "Feature", "properties": { "Nom": "Benoit-XV / 16e Rue", "Fermeture": null }, "geometry": { "type": "Point", "coordinates": [ -71.234050043465686, 46.829974028704356 ] } },
{ "type": "Feature", "properties": { "Nom": "26e Rue / 25e Rue", "Fermeture": null }, "geometry": { "type": "Point", "coordinates": [ -71.237168363205143, 46.836935298991563 ] } },
{ "type": "Feature", "properties": { "Nom": "Église de Saint-Pascal-de-Maizerets", "Fermeture": null }, "geometry": { "type": "Point", "coordinates": [ -71.221910582130434, 46.83985626923306 ] } },
{ "type": "Feature", "properties": { "Nom": "Espace Quatre Cents", "Fermeture": "6" }, "geometry": { "type": "Point", "coordinates": [ -71.205183580079336, 46.817135365909074 ] } },
{ "type": "Feature", "properties": { "Nom": "Du Pont / De La Salle", "Fermeture": null }, "geometry": { "type": "Point", "coordinates": [ -71.2216466137927, 46.816549044645029 ] } },
{ "type": "Feature", "properties": { "Nom": "Sainte-Foy / Nérée-Tremblay", "Fermeture": null }, "geometry": { "type": "Point", "coordinates": [ -71.281009747110232, 46.786115595107461 ] } },
{ "type": "Feature", "properties": { "Nom": "Parc Richelieu", "Fermeture": "6" }, "geometry": { "type": "Point", "coordinates": [ -71.220847950009983, 46.810775417694096 ] } },
{ "type": "Feature", "properties": { "Nom": "Place Ste-Foy - Bernardin-Morin", "Fermeture": null }, "geometry": { "type": "Point", "coordinates": [ -71.281160325687509, 46.772267171644557 ] } },
{ "type": "Feature", "properties": { "Nom": "Laurier Québec", "Fermeture": null }, "geometry": { "type": "Point", "coordinates": [ -71.283211265920301, 46.77169394281804 ] } },
{ "type": "Feature", "properties": { "Nom": "Des Saules E. / 1re Avenue", "Fermeture": null }, "geometry": { "type": "Point", "coordinates": [ -71.245766145381964, 46.839244468095551 ] } },
{ "type": "Feature", "properties": { "Nom": "Cathédrale Holy Trinity", "Fermeture": "6" }, "geometry": { "type": "Point", "coordinates": [ -71.207277737452202, 46.81263929220529 ] } },
{ "type": "Feature", "properties": { "Nom": "Fleur-de-Lys / Wilfrid-Hamel", "Fermeture": null }, "geometry": { "type": "Point", "coordinates": [ -71.249531190108783, 46.820253109039513 ] } },
{ "type": "Feature", "properties": { "Nom": "D'Assise / Ozanam", "Fermeture": null }, "geometry": { "type": "Point", "coordinates": [ -71.239154609458808, 46.828155787046619 ] } },
{ "type": "Feature", "properties": { "Nom": "Église Saint-Fidèle", "Fermeture": null }, "geometry": { "type": "Point", "coordinates": [ -71.2289210025546, 46.828738566364144 ] } },
{ "type": "Feature", "properties": { "Nom": "6e Rue / 1re Avenue", "Fermeture": "6" }, "geometry": { "type": "Point", "coordinates": [ -71.230118327119058, 46.822806371028356 ] } },
{ "type": "Feature", "properties": { "Nom": "Bibliothèque Saint-Charles", "Fermeture": null }, "geometry": { "type": "Point", "coordinates": [ -71.224012357690441, 46.82357808788128 ] } },
{ "type": "Feature", "properties": { "Nom": "Wilfrid-Laurier / Galipeault", "Fermeture": "6" }, "geometry": { "type": "Point", "coordinates": [ -71.220920583466139, 46.802727248105029 ] } },
{ "type": "Feature", "properties": { "Nom": "Kirouac / Durocher", "Fermeture": "6" }, "geometry": { "type": "Point", "coordinates": [ -71.234482448068292, 46.808554518818234 ] } },
{ "type": "Feature", "properties": { "Nom": "Père-Marquette / Calixa-Lavallée", "Fermeture": null }, "geometry": { "type": "Point", "coordinates": [ -71.241499030281034, 46.797584812497725 ] } },
{ "type": "Feature", "properties": { "Nom": "Saint-Sauveur / Saint-Bonaventure", "Fermeture": "6" }, "geometry": { "type": "Point", "coordinates": [ -71.243285515734627, 46.809916508071545 ] } },
{ "type": "Feature", "properties": { "Nom": "Du Parvis / De Sainte-Hélène", "Fermeture": "6" }, "geometry": { "type": "Point", "coordinates": [ -71.223015402115223, 46.813848488208663 ] } },
{ "type": "Feature", "properties": { "Nom": "Gérard-Morisset / René-Lévesque", "Fermeture": null }, "geometry": { "type": "Point", "coordinates": [ -71.256478631487994, 46.788471044605103 ] } },
{ "type": "Feature", "properties": { "Nom": "Parc Alys-Robi", "Fermeture": "6" }, "geometry": { "type": "Point", "coordinates": [ -71.235202328806437, 46.810283492435204 ] } },
{ "type": "Feature", "properties": { "Nom": "SAAQ - Édifice Jean-Lesage", "Fermeture": null }, "geometry": { "type": "Point", "coordinates": [ -71.215248610467285, 46.818098059385044 ] } },
{ "type": "Feature", "properties": { "Nom": "Félix-Gabriel-Marchand / Saint-Olivier", "Fermeture": "6" }, "geometry": { "type": "Point", "coordinates": [ -71.227281838473886, 46.807907961065276 ] } },
{ "type": "Feature", "properties": { "Nom": "Richelieu / D'Auteuil", "Fermeture": "6" }, "geometry": { "type": "Point", "coordinates": [ -71.213425437182636, 46.813992169888721 ] } },
{ "type": "Feature", "properties": { "Nom": "Dalhousie / Quai Saint-André", "Fermeture": "6" }, "geometry": { "type": "Point", "coordinates": [ -71.202347317960786, 46.817195675607586 ] } },
{ "type": "Feature", "properties": { "Nom": "De Bourlamaque / Crémazie O.", "Fermeture": "6" }, "geometry": { "type": "Point", "coordinates": [ -71.229018285692604, 46.803668236993389 ] } },
{ "type": "Feature", "properties": { "Nom": "De l'Alverne / Sainte-Foy", "Fermeture": "6" }, "geometry": { "type": "Point", "coordinates": [ -71.232220412968672, 46.804294688069874 ] } },
{ "type": "Feature", "properties": { "Nom": "Place Ste-Foy - Robert-Bourassa", "Fermeture": null }, "geometry": { "type": "Point", "coordinates": [ -71.277429865592637, 46.775043756088714 ] } },
{ "type": "Feature", "properties": { "Nom": "Saint-Jean / Des Zouaves", "Fermeture": "6" }, "geometry": { "type": "Point", "coordinates": [ -71.219674837442156, 46.810174518202807 ] } },
{ "type": "Feature", "properties": { "Nom": "Parc Victoria - Saint-Anselme", "Fermeture": "6" }, "geometry": { "type": "Point", "coordinates": [ -71.231857070847056, 46.815389591297588 ] } },
{ "type": "Feature", "properties": { "Nom": "Pont Dorchester", "Fermeture": "6" }, "geometry": { "type": "Point", "coordinates": [ -71.223520124676767, 46.818934882567795 ] } },
{ "type": "Feature", "properties": { "Nom": "Église de Saint-Sauveur", "Fermeture": "6" }, "geometry": { "type": "Point", "coordinates": [ -71.235951544287431, 46.811191926498353 ] } }
]
}
