{
"type": "FeatureCollection",
"name": "Réseau 3 novembre",
"crs": { "type": "name", "properties": { "name": "urn:ogc:def:crs:OGC:1.3:CRS84" } },
"features": [
{ "type": "Feature", "properties": { "Nom": "3e Avenue / 8e Rue", "Fermeture": null }, "geometry": { "type": "Point", "coordinates": [ -71.228468808020949, 46.825065181929801 ] } },
{ "type": "Feature", "properties": { "Nom": "Gare du Palais", "Fermeture": null }, "geometry": { "type": "Point", "coordinates": [ -71.212854728543931, 46.817553052236249 ] } },
{ "type": "Feature", "properties": { "Nom": "Traverse", "Fermeture": "6" }, "geometry": { "type": "Point", "coordinates": [ -71.202286990200903, 46.812102918667527 ] } },
{ "type": "Feature", "properties": { "Nom": "Hôtel de ville", "Fermeture": null }, "geometry": { "type": "Point", "coordinates": [ -71.20887711664264, 46.813906296802408 ] } },
{ "type": "Feature", "properties": { "Nom": "Place Jacques-Cartier", "Fermeture": null }, "geometry": { "type": "Point", "coordinates": [ -71.224859947341386, 46.814317311705061 ] } },
{ "type": "Feature", "properties": { "Nom": "Parc Durocher", "Fermeture": "6" }, "geometry": { "type": "Point", "coordinates": [ -71.23880399230066, 46.811802617490926 ] } },
{ "type": "Feature", "properties": { "Nom": "Église Saint-Jean-Baptiste", "Fermeture": null }, "geometry": { "type": "Point", "coordinates": [ -71.222582054876185, 46.808912702869328 ] } },
{ "type": "Feature", "properties": { "Nom": "Parc de la Francophonie", "Fermeture": null }, "geometry": { "type": "Point", "coordinates": [ -71.215799168573525, 46.807824408649978 ] } },
{ "type": "Feature", "properties": { "Nom": "Fraser / Cartier", "Fermeture": null }, "geometry": { "type": "Point", "coordinates": [ -71.225710095831673, 46.803839094573782 ] } },
{ "type": "Feature", "properties": { "Nom": "Cégep Garneau", "Fermeture": "5" }, "geometry": { "type": "Point", "coordinates": [ -71.263620241246372, 46.792771414317421 ] } },
{ "type": "Feature", "properties": { "Nom": "Eymard / Sainte-Foy", "Fermeture": null }, "geometry": { "type": "Point", "coordinates": [ -71.25836060746677, 46.793365135273262 ] } },
{ "type": "Feature", "properties": { "Nom": "De Callieres / Marguerite-Bourgeoys", "Fermeture": null }, "geometry": { "type": "Point", "coordinates": [ -71.252508768459236, 46.791424983763669 ] } },
{ "type": "Feature", "properties": { "Nom": "Marie-Rollet / Marguerite-Bourgeoys", "Fermeture": null }, "geometry": { "type": "Point", "coordinates": [ -71.25420383509973, 46.794003109691097 ] } },
{ "type": "Feature", "properties": { "Nom": "Raymond-Casgrain / Ernest-Gagnon", "Fermeture": null }, "geometry": { "type": "Point", "coordinates": [ -71.249043400984931, 46.795041295041734 ] } },
{ "type": "Feature", "properties": { "Nom": "Patro Laval", "Fermeture": null }, "geometry": { "type": "Point", "coordinates": [ -71.242239624078607, 46.812347818286284 ] } },
{ "type": "Feature", "properties": { "Nom": "Parc du Bois-de-Coulonge", "Fermeture": "5" }, "geometry": { "type": "Point", "coordinates": [ -71.244364960830737, 46.789251532296454 ] } },
{ "type": "Feature", "properties": { "Nom": "Bibliothèque Collège-des-Jésuites", "Fermeture": null }, "geometry": { "type": "Point", "coordinates": [ -71.243515163181712, 46.795257593944172 ] } },
{ "type": "Feature", "properties": { "Nom": "Père-Marquette / Des Braves", "Fermeture": null }, "geometry": { "type": "Point", "coordinates": [ -71.239447121281771, 46.798732932865896 ] } },
{ "type": "Feature", "properties": { "Nom": "Parc des Braves", "Fermeture": null }, "geometry": { "type": "Point", "coordinates": [ -71.239075332991717, 46.801274758031049 ] } },
{ "type": "Feature", "properties": { "Nom": "Père-Marquette / De Manrèse", "Fermeture": null }, "geometry": { "type": "Point", "coordinates": [ -71.232314227092715, 46.802959258626302 ] } },
{ "type": "Feature", "properties": { "Nom": "Parc Lockwell", "Fermeture": null }, "geometry": { "type": "Point", "coordinates": [ -71.226904411162877, 46.806190026945906 ] } },
{ "type": "Feature", "properties": { "Nom": "Musée national des beaux-arts", "Fermeture": null }, "geometry": { "type": "Point", "coordinates": [ -71.226156129425689, 46.801429466282229 ] } },
{ "type": "Feature", "properties": { "Nom": "Grand Théâtre de Québec", "Fermeture": null }, "geometry": { "type": "Point", "coordinates": [ -71.221002361859107, 46.806402989788701 ] } },
{ "type": "Feature", "properties": { "Nom": "Parc de l'Esplanade", "Fermeture": "6" }, "geometry": { "type": "Point", "coordinates": [ -71.211782896739294, 46.810928212538656 ] } },
{ "type": "Feature", "properties": { "Nom": "Parc Montmorency", "Fermeture": "6" }, "geometry": { "type": "Point", "coordinates": [ -71.204809416099224, 46.813905366740556 ] } },
{ "type": "Feature", "properties": { "Nom": "Place des Canotiers", "Fermeture": null }, "geometry": { "type": "Point", "coordinates": [ -71.201200550728558, 46.815012085190787 ] } },
{ "type": "Feature", "properties": { "Nom": "Bassin Louise", "Fermeture": null }, "geometry": { "type": "Point", "coordinates": [ -71.208925723614797, 46.817719479510835 ] } },
{ "type": "Feature", "properties": { "Nom": "Parc Saint-Matthew", "Fermeture": null }, "geometry": { "type": "Point", "coordinates": [ -71.217639574852058, 46.811032466544589 ] } },
{ "type": "Feature", "properties": { "Nom": "Parc John-Munn", "Fermeture": null }, "geometry": { "type": "Point", "coordinates": [ -71.218955068729599, 46.817903716035289 ] } },
{ "type": "Feature", "properties": { "Nom": "Saint-Vallier E. / Caron", "Fermeture": "6" }, "geometry": { "type": "Point", "coordinates": [ -71.227043135909312, 46.811565555252862 ] } },
{ "type": "Feature", "properties": { "Nom": "Saint-Joseph E. / Caron", "Fermeture": null }, "geometry": { "type": "Point", "coordinates": [ -71.228699441647848, 46.812895396196069 ] } },
{ "type": "Feature", "properties": { "Nom": "Place Roger-Lemelin", "Fermeture": null }, "geometry": { "type": "Point", "coordinates": [ -71.236052450648188, 46.807056323408716 ] } },
{ "type": "Feature", "properties": { "Nom": "Parc Victoria - S.-Napoléon-Parent", "Fermeture": null }, "geometry": { "type": "Point", "coordinates": [ -71.235503058098729, 46.815042840546042 ] } },
{ "type": "Feature", "properties": { "Nom": "Parc de la Pointe-aux-Lièvres", "Fermeture": "6" }, "geometry": { "type": "Point", "coordinates": [ -71.235143519407856, 46.821288992851954 ] } },
{ "type": "Feature", "properties": { "Nom": "3e Rue / 3e Avenue", "Fermeture": null }, "geometry": { "type": "Point", "coordinates": [ -71.225496774847187, 46.822123609172735 ] } },
{ "type": "Feature", "properties": { "Nom": "13e Rue / 1re Avenue", "Fermeture": null }, "geometry": { "type": "Point", "coordinates": [ -71.234617854234358, 46.827185677353192 ] } },
{ "type": "Feature", "properties": { "Nom": "Cégep Limoilou - Limoilou", "Fermeture": null }, "geometry": { "type": "Point", "coordinates": [ -71.22839792749923, 46.83054213631992 ] } },
{ "type": "Feature", "properties": { "Nom": "Parc de l'Anse-à-Cartier", "Fermeture": null }, "geometry": { "type": "Point", "coordinates": [ -71.234943724222219, 46.824991487090273 ] } },
{ "type": "Feature", "properties": { "Nom": "ExpoCité - Grand Marché", "Fermeture": null }, "geometry": { "type": "Point", "coordinates": [ -71.24410112427708, 46.829456922423859 ] } },
{ "type": "Feature", "properties": { "Nom": "Saint-Vallier E. / Lépine", "Fermeture": "6" }, "geometry": { "type": "Point", "coordinates": [ -71.219350226291553, 46.813461035683915 ] } },
{ "type": "Feature", "properties": { "Nom": "Château Frontenac", "Fermeture": "6" }, "geometry": { "type": "Point", "coordinates": [ -71.2050949196895, 46.811405101510353 ] } },
{ "type": "Feature", "properties": { "Nom": "Lavigueur / Sainte-Geneviève", "Fermeture": null }, "geometry": { "type": "Point", "coordinates": [ -71.220473861284631, 46.812386755020093 ] } },
{ "type": "Feature", "properties": { "Nom": "Collège Mérici", "Fermeture": "5" }, "geometry": { "type": "Point", "coordinates": [ -71.232834288911562, 46.796504916368484 ] } },
{ "type": "Feature", "properties": { "Nom": "Brown / Père-Marquette", "Fermeture": null }, "geometry": { "type": "Point", "coordinates": [ -71.235466171550229, 46.801101999238035 ] } },
{ "type": "Feature", "properties": { "Nom": "Raymond-Casgrain / Cardinal-Rouleau", "Fermeture": null }, "geometry": { "type": "Point", "coordinates": [ -71.244255969341026, 46.797517672545048 ] } },
{ "type": "Feature", "properties": { "Nom": "La Cité Verte", "Fermeture": "5" }, "geometry": { "type": "Point", "coordinates": [ -71.249188370751881, 46.797726316290891 ] } },
{ "type": "Feature", "properties": { "Nom": "Sheppard / William", "Fermeture": "5" }, "geometry": { "type": "Point", "coordinates": [ -71.24931961989455, 46.78405945738006 ] } },
{ "type": "Feature", "properties": { "Nom": "Maguire / Sheppard", "Fermeture": "5" }, "geometry": { "type": "Point", "coordinates": [ -71.252634577512993, 46.781953089215705 ] } },
{ "type": "Feature", "properties": { "Nom": "Parc Anet-Gomin", "Fermeture": "5" }, "geometry": { "type": "Point", "coordinates": [ -71.258238139738708, 46.786626630448666 ] } },
{ "type": "Feature", "properties": { "Nom": "Hélène-Boulle / Du Bon-Air", "Fermeture": null }, "geometry": { "type": "Point", "coordinates": [ -71.264692129106535, 46.78942555021009 ] } },
{ "type": "Feature", "properties": { "Nom": "Parc Myrand", "Fermeture": null }, "geometry": { "type": "Point", "coordinates": [ -71.266304179692355, 46.787313274439178 ] } },
{ "type": "Feature", "properties": { "Nom": "Myrand / Liénard", "Fermeture": "5" }, "geometry": { "type": "Point", "coordinates": [ -71.264866368699074, 46.785112964413258 ] } },
{ "type": "Feature", "properties": { "Nom": "Ulaval - Charles-De Koninck", "Fermeture": null }, "geometry": { "type": "Point", "coordinates": [ -71.272652034265505, 46.780341266529447 ] } },
{ "type": "Feature", "properties": { "Nom": "Ulaval - Alphonse-Desjardins", "Fermeture": null }, "geometry": { "type": "Point", "coordinates": [ -71.270554924801701, 46.778926680135491 ] } },
{ "type": "Feature", "properties": { "Nom": "Ulaval - PEPS", "Fermeture": null }, "geometry": { "type": "Point", "coordinates": [ -71.276317412706263, 46.783275222787196 ] } },
{ "type": "Feature", "properties": { "Nom": "Ulaval - Adrien-Pouliot", "Fermeture": "5" }, "geometry": { "type": "Point", "coordinates": [ -71.276418140408921, 46.778992228813884 ] } },
{ "type": "Feature", "properties": { "Nom": "Cégep de Sainte-Foy", "Fermeture": null }, "geometry": { "type": "Point", "coordinates": [ -71.285241466285086, 46.786367484499223 ] } },
{ "type": "Feature", "properties": { "Nom": "De Prével / Quatre-Bourgeois", "Fermeture": "5" }, "geometry": { "type": "Point", "coordinates": [ -71.284518584766957, 46.784326105072132 ] } },
{ "type": "Feature", "properties": { "Nom": "Montmagny / De la Pente-Douce", "Fermeture": null }, "geometry": { "type": "Point", "coordinates": [ -71.238832818549284, 46.804271000590084 ] } },
{ "type": "Feature", "properties": { "Nom": "Raoul-Jobin / Marie-de-l'Incarnation", "Fermeture": null }, "geometry": { "type": "Point", "coordinates": [ -71.244300951680287, 46.807531776437628 ] } },
{ "type": "Feature", "properties": { "Nom": "Bayard / Boisseau", "Fermeture": "6" }, "geometry": { "type": "Point", "coordinates": [ -71.238001378258332, 46.809847143374277 ] } },
{ "type": "Feature", "properties": { "Nom": "Signaï / Christophe-Colomb", "Fermeture": null }, "geometry": { "type": "Point", "coordinates": [ -71.231673421442736, 46.809818056944515 ] } },
{ "type": "Feature", "properties": { "Nom": "Bourdages / Monseigneur-Plessis", "Fermeture": null }, "geometry": { "type": "Point", "coordinates": [ -71.24079632966874, 46.817361347473074 ] } },
{ "type": "Feature", "properties": { "Nom": "11e Rue / 3e Avenue", "Fermeture": null }, "geometry": { "type": "Point", "coordinates": [ -71.23058504529962, 46.827093777460973 ] } },
{ "type": "Feature", "properties": { "Nom": "Perrault / 24e Rue", "Fermeture": null }, "geometry": { "type": "Point", "coordinates": [ -71.231759285160166, 46.840812475783686 ] } },
{ "type": "Feature", "properties": { "Nom": "Parc Bardy", "Fermeture": null }, "geometry": { "type": "Point", "coordinates": [ -71.224951768251572, 46.842717314524883 ] } },
{ "type": "Feature", "properties": { "Nom": "De la Trinité / De Villebon", "Fermeture": null }, "geometry": { "type": "Point", "coordinates": [ -71.221170519286176, 46.834092635735217 ] } },
{ "type": "Feature", "properties": { "Nom": "Domaine de Maizerets", "Fermeture": null }, "geometry": { "type": "Point", "coordinates": [ -71.216036021874586, 46.836549083615516 ] } },
{ "type": "Feature", "properties": { "Nom": "Parc du Buisson", "Fermeture": "5" }, "geometry": { "type": "Point", "coordinates": [ -71.258006771858177, 46.778815848129227 ] } },
{ "type": "Feature", "properties": { "Nom": "Samuel-King / Quatre-Bourgeois", "Fermeture": "5" }, "geometry": { "type": "Point", "coordinates": [ -71.28996065333871, 46.780222101916664 ] } },
{ "type": "Feature", "properties": { "Nom": "Wolfe / Quatre-Bourgeois", "Fermeture": "5" }, "geometry": { "type": "Point", "coordinates": [ -71.295596191297008, 46.776189295908871 ] } },
{ "type": "Feature", "properties": { "Nom": "IUCPQ", "Fermeture": "5" }, "geometry": { "type": "Point", "coordinates": [ -71.294443226139734, 46.77791041595561 ] } },
{ "type": "Feature", "properties": { "Nom": "Des Bouleaux O. / Du Colisée", "Fermeture": null }, "geometry": { "type": "Point", "coordinates": [ -71.247446051428582, 46.834847653998636 ] } },
{ "type": "Feature", "properties": { "Nom": "De la Place Philippe / Richer", "Fermeture": null }, "geometry": { "type": "Point", "coordinates": [ -71.267984564941031, 46.791523388199458 ] } },
{ "type": "Feature", "properties": { "Nom": "Ulaval - Abitibi-Price", "Fermeture": "5" }, "geometry": { "type": "Point", "coordinates": [ -71.278859057412731, 46.780516728140235 ] } },
{ "type": "Feature", "properties": { "Nom": "Parc Victoria - De la Maréchaussée", "Fermeture": "6" }, "geometry": { "type": "Point", "coordinates": [ -71.230814826722593, 46.817666254774807 ] } },
{ "type": "Feature", "properties": { "Nom": "Cartier-Brébeuf", "Fermeture": "6" }, "geometry": { "type": "Point", "coordinates": [ -71.240395205755945, 46.824301490734449 ] } },
{ "type": "Feature", "properties": { "Nom": "CFP de Limoilou", "Fermeture": null }, "geometry": { "type": "Point", "coordinates": [ -71.232055667261378, 46.834446633348293 ] } },
{ "type": "Feature", "properties": { "Nom": "Bibliothèque Monique-Corriveau", "Fermeture": "4" }, "geometry": { "type": "Point", "coordinates": [ -71.293567664441724, 46.770196079161202 ] } },
{ "type": "Feature", "properties": { "Nom": "Des Peupliers E. / 4e Avenue", "Fermeture": null }, "geometry": { "type": "Point", "coordinates": [ -71.240527045220617, 46.840100230046389 ] } },
{ "type": "Feature", "properties": { "Nom": "Alexander / Du Colonel-Mathieu", "Fermeture": "5" }, "geometry": { "type": "Point", "coordinates": [ -71.274179844694615, 46.772399585338576 ] } },
{ "type": "Feature", "properties": { "Nom": "Chapdelaine / De Belmont", "Fermeture": null }, "geometry": { "type": "Point", "coordinates": [ -71.274496423833014, 46.790714664467835 ] } },
{ "type": "Feature", "properties": { "Nom": "Musée des plaines d'Abraham", "Fermeture": "6" }, "geometry": { "type": "Point", "coordinates": [ -71.212423051142892, 46.807439415327117 ] } },
{ "type": "Feature", "properties": { "Nom": "Parc Roland-Beaudin", "Fermeture": "4" }, "geometry": { "type": "Point", "coordinates": [ -71.300722254535643, 46.772453524800689 ] } },
{ "type": "Feature", "properties": { "Nom": "1re Rue / 6e Avenue", "Fermeture": "6" }, "geometry": { "type": "Point", "coordinates": [ -71.220891881219416, 46.822167752325164 ] } },
{ "type": "Feature", "properties": { "Nom": "Benoit-XV / 16e Rue", "Fermeture": null }, "geometry": { "type": "Point", "coordinates": [ -71.234050043465686, 46.829974028704356 ] } },
{ "type": "Feature", "properties": { "Nom": "26e Rue / 25e Rue", "Fermeture": null }, "geometry": { "type": "Point", "coordinates": [ -71.237168363205143, 46.836935298991563 ] } },
{ "type": "Feature", "properties": { "Nom": "Église de Saint-Pascal-de-Maizerets", "Fermeture": null }, "geometry": { "type": "Point", "coordinates": [ -71.221910582130434, 46.83985626923306 ] } },
{ "type": "Feature", "properties": { "Nom": "Parc Dollards-Des Ormeaux", "Fermeture": "4" }, "geometry": { "type": "Point", "coordinates": [ -71.247697072743577, 46.805579006961104 ] } },
{ "type": "Feature", "properties": { "Nom": "Espace Quatre Cents", "Fermeture": "6" }, "geometry": { "type": "Point", "coordinates": [ -71.205183580079336, 46.817135365909074 ] } },
{ "type": "Feature", "properties": { "Nom": "Parc du Général-Vanier", "Fermeture": "4" }, "geometry": { "type": "Point", "coordinates": [ -71.253380539180796, 46.807819350380349 ] } },
{ "type": "Feature", "properties": { "Nom": "Du Pont / De La Salle", "Fermeture": null }, "geometry": { "type": "Point", "coordinates": [ -71.2216466137927, 46.816549044645029 ] } },
{ "type": "Feature", "properties": { "Nom": "Sainte-Foy / Nérée-Tremblay", "Fermeture": null }, "geometry": { "type": "Point", "coordinates": [ -71.281009747110232, 46.786115595107461 ] } },
{ "type": "Feature", "properties": { "Nom": "Parc Richelieu", "Fermeture": "6" }, "geometry": { "type": "Point", "coordinates": [ -71.220847950009983, 46.810775417694096 ] } },
{ "type": "Feature", "properties": { "Nom": "Hochelaga / De Soulanges", "Fermeture": "4" }, "geometry": { "type": "Point", "coordinates": [ -71.289261072254618, 46.769717473616275 ] } },
{ "type": "Feature", "properties": { "Nom": "Place Ste-Foy - Bernardin-Morin", "Fermeture": null }, "geometry": { "type": "Point", "coordinates": [ -71.281160325687509, 46.772267171644557 ] } },
{ "type": "Feature", "properties": { "Nom": "Laurier Québec", "Fermeture": null }, "geometry": { "type": "Point", "coordinates": [ -71.283211265920301, 46.77169394281804 ] } },
{ "type": "Feature", "properties": { "Nom": "Des Saules E. / 1re Avenue", "Fermeture": null }, "geometry": { "type": "Point", "coordinates": [ -71.245766145381964, 46.839244468095551 ] } },
{ "type": "Feature", "properties": { "Nom": "Sasseville / De l'Église", "Fermeture": "4" }, "geometry": { "type": "Point", "coordinates": [ -71.287223410386446, 46.766611460591349 ] } },
{ "type": "Feature", "properties": { "Nom": "De La Forest / Lavigerie", "Fermeture": "4" }, "geometry": { "type": "Point", "coordinates": [ -71.288513771856628, 46.76008424994761 ] } },
{ "type": "Feature", "properties": { "Nom": "Cathédrale Holy Trinity", "Fermeture": "6" }, "geometry": { "type": "Point", "coordinates": [ -71.207277737452202, 46.81263929220529 ] } },
{ "type": "Feature", "properties": { "Nom": "Fleur-de-Lys / Wilfrid-Hamel", "Fermeture": null }, "geometry": { "type": "Point", "coordinates": [ -71.249531190108783, 46.820253109039513 ] } },
{ "type": "Feature", "properties": { "Nom": "D'Assise / Ozanam", "Fermeture": null }, "geometry": { "type": "Point", "coordinates": [ -71.239154609458808, 46.828155787046619 ] } },
{ "type": "Feature", "properties": { "Nom": "Église Saint-Fidèle", "Fermeture": null }, "geometry": { "type": "Point", "coordinates": [ -71.2289210025546, 46.828738566364144 ] } },
{ "type": "Feature", "properties": { "Nom": "6e Rue / 1re Avenue", "Fermeture": "6" }, "geometry": { "type": "Point", "coordinates": [ -71.230118327119058, 46.822806371028356 ] } },
{ "type": "Feature", "properties": { "Nom": "Bibliothèque Saint-Charles", "Fermeture": null }, "geometry": { "type": "Point", "coordinates": [ -71.224012357690441, 46.82357808788128 ] } },
{ "type": "Feature", "properties": { "Nom": "De Belmont / Sainte-Foy", "Fermeture": "5" }, "geometry": { "type": "Point", "coordinates": [ -71.27241150386898, 46.788557060306665 ] } },
{ "type": "Feature", "properties": { "Nom": "Chevremont / Monseigneur-Laflèche", "Fermeture": "5" }, "geometry": { "type": "Point", "coordinates": [ -71.29115036588729, 46.78403683961244 ] } },
{ "type": "Feature", "properties": { "Nom": "Du Sieur-D'Argentuil / Saint-Louis", "Fermeture": "4" }, "geometry": { "type": "Point", "coordinates": [ -71.283688794940716, 46.761596201459227 ] } },
{ "type": "Feature", "properties": { "Nom": "Du Chanoine-Martin / Sainte-Foy", "Fermeture": "5" }, "geometry": { "type": "Point", "coordinates": [ -71.303301800437751, 46.779101085262482 ] } },
{ "type": "Feature", "properties": { "Nom": "Sainte-Foy / Arthur-Rousseau", "Fermeture": "5" }, "geometry": { "type": "Point", "coordinates": [ -71.299997714309555, 46.780695491461962 ] } },
{ "type": "Feature", "properties": { "Nom": "Des Châtelets / Lavigerie", "Fermeture": "4" }, "geometry": { "type": "Point", "coordinates": [ -71.295709037305471, 46.76589635619623 ] } },
{ "type": "Feature", "properties": { "Nom": "Moncton / Fraser", "Fermeture": "5" }, "geometry": { "type": "Point", "coordinates": [ -71.232511037493509, 46.80009742823988 ] } },
{ "type": "Feature", "properties": { "Nom": "Parc du Verdier", "Fermeture": "4" }, "geometry": { "type": "Point", "coordinates": [ -71.306053589170403, 46.768978063824839 ] } },
{ "type": "Feature", "properties": { "Nom": "De Bourgogne / Du Viaduc", "Fermeture": "4" }, "geometry": { "type": "Point", "coordinates": [ -71.312222046616924, 46.767112851880228 ] } },
{ "type": "Feature", "properties": { "Nom": "France-Prime / Duchesneau", "Fermeture": "4" }, "geometry": { "type": "Point", "coordinates": [ -71.304994213666902, 46.764062034390726 ] } },
{ "type": "Feature", "properties": { "Nom": "Borne / Saint-Sacrement", "Fermeture": "4" }, "geometry": { "type": "Point", "coordinates": [ -71.261537796400688, 46.801543157792331 ] } },
{ "type": "Feature", "properties": { "Nom": "Wilfrid-Laurier / Galipeault", "Fermeture": "6" }, "geometry": { "type": "Point", "coordinates": [ -71.220920583466139, 46.802727248105029 ] } },
{ "type": "Feature", "properties": { "Nom": "Kirouac / Durocher", "Fermeture": "6" }, "geometry": { "type": "Point", "coordinates": [ -71.234482448068292, 46.808554518818234 ] } },
{ "type": "Feature", "properties": { "Nom": "Père-Marquette / Calixa-Lavallée", "Fermeture": null }, "geometry": { "type": "Point", "coordinates": [ -71.241499030281034, 46.797584812497725 ] } },
{ "type": "Feature", "properties": { "Nom": "Saint-Sauveur / Saint-Bonaventure", "Fermeture": "6" }, "geometry": { "type": "Point", "coordinates": [ -71.243285515734627, 46.809916508071545 ] } },
{ "type": "Feature", "properties": { "Nom": "Du Parvis / De Sainte-Hélène", "Fermeture": "6" }, "geometry": { "type": "Point", "coordinates": [ -71.223015402115223, 46.813848488208663 ] } },
{ "type": "Feature", "properties": { "Nom": "Gérard-Morisset / René-Lévesque", "Fermeture": null }, "geometry": { "type": "Point", "coordinates": [ -71.256478631487994, 46.788471044605103 ] } },
{ "type": "Feature", "properties": { "Nom": "Cyrille-Duquet / Charest O.", "Fermeture": "4" }, "geometry": { "type": "Point", "coordinates": [ -71.262411136360598, 46.797738598165886 ] } },
{ "type": "Feature", "properties": { "Nom": "Parc Alys-Robi", "Fermeture": "6" }, "geometry": { "type": "Point", "coordinates": [ -71.235202328806437, 46.810283492435204 ] } },
{ "type": "Feature", "properties": { "Nom": "SAAQ - Édifice Jean-Lesage", "Fermeture": null }, "geometry": { "type": "Point", "coordinates": [ -71.215248610467285, 46.818098059385044 ] } },
{ "type": "Feature", "properties": { "Nom": "Félix-Gabriel-Marchand / Saint-Olivier", "Fermeture": "6" }, "geometry": { "type": "Point", "coordinates": [ -71.227281838473886, 46.807907961065276 ] } },
{ "type": "Feature", "properties": { "Nom": "Centre communautaire de la Pointe-de-Ste-Foy", "Fermeture": "4" }, "geometry": { "type": "Point", "coordinates": [ -71.323624103045631, 46.753990489656942 ] } },
{ "type": "Feature", "properties": { "Nom": "De Liège / Neilson", "Fermeture": "4" }, "geometry": { "type": "Point", "coordinates": [ -71.310043331768625, 46.756626339907115 ] } },
{ "type": "Feature", "properties": { "Nom": "Parc Nérée-Tremblay", "Fermeture": "5" }, "geometry": { "type": "Point", "coordinates": [ -71.282580594745141, 46.789538859374602 ] } },
{ "type": "Feature", "properties": { "Nom": "Richelieu / D'Auteuil", "Fermeture": "6" }, "geometry": { "type": "Point", "coordinates": [ -71.213425437182636, 46.813992169888721 ] } },
{ "type": "Feature", "properties": { "Nom": "Dalhousie / Quai Saint-André", "Fermeture": "6" }, "geometry": { "type": "Point", "coordinates": [ -71.202347317960786, 46.817195675607586 ] } },
{ "type": "Feature", "properties": { "Nom": "De Bourlamaque / Crémazie O.", "Fermeture": "6" }, "geometry": { "type": "Point", "coordinates": [ -71.229018285692604, 46.803668236993389 ] } },
{ "type": "Feature", "properties": { "Nom": "De l'Alverne / Sainte-Foy", "Fermeture": "6" }, "geometry": { "type": "Point", "coordinates": [ -71.232220412968672, 46.804294688069874 ] } },
{ "type": "Feature", "properties": { "Nom": "De La Pérade / Bégon", "Fermeture": "4" }, "geometry": { "type": "Point", "coordinates": [ -71.319295068452718, 46.762704981854696 ] } },
{ "type": "Feature", "properties": { "Nom": "Terminus de Marly", "Fermeture": "4" }, "geometry": { "type": "Point", "coordinates": [ -71.328841048231496, 46.752952261423815 ] } },
{ "type": "Feature", "properties": { "Nom": "Laudance / Du Campanile", "Fermeture": "4" }, "geometry": { "type": "Point", "coordinates": [ -71.333857704169972, 46.761103359876707 ] } },
{ "type": "Feature", "properties": { "Nom": "Conrad-Laforte / Sainte-Foy", "Fermeture": "4" }, "geometry": { "type": "Point", "coordinates": [ -71.333052316336193, 46.765004264768173 ] } },
{ "type": "Feature", "properties": { "Nom": "De Tilly / Maricourt", "Fermeture": "4" }, "geometry": { "type": "Point", "coordinates": [ -71.317054181536946, 46.761210702288757 ] } },
{ "type": "Feature", "properties": { "Nom": "Parc Raymond-De Rosa", "Fermeture": "4" }, "geometry": { "type": "Point", "coordinates": [ -71.307078559668369, 46.758022547373898 ] } },
{ "type": "Feature", "properties": { "Nom": "Place Ste-Foy - Robert-Bourassa", "Fermeture": null }, "geometry": { "type": "Point", "coordinates": [ -71.277429865592637, 46.775043756088714 ] } },
{ "type": "Feature", "properties": { "Nom": "Saint-Jean / Des Zouaves", "Fermeture": "6" }, "geometry": { "type": "Point", "coordinates": [ -71.219674837442156, 46.810174518202807 ] } },
{ "type": "Feature", "properties": { "Nom": "Parc Victoria - Saint-Anselme", "Fermeture": "6" }, "geometry": { "type": "Point", "coordinates": [ -71.231857070847056, 46.815389591297588 ] } },
{ "type": "Feature", "properties": { "Nom": "Pont Dorchester", "Fermeture": "6" }, "geometry": { "type": "Point", "coordinates": [ -71.223520124676767, 46.818934882567795 ] } },
{ "type": "Feature", "properties": { "Nom": "De la Pente-Douce / Calixa-Lavallée", "Fermeture": "4" }, "geometry": { "type": "Point", "coordinates": [ -71.245411386411064, 46.801207582421405 ] } },
{ "type": "Feature", "properties": { "Nom": "Kirouac / Marie-Louise", "Fermeture": "4" }, "geometry": { "type": "Point", "coordinates": [ -71.242432446171634, 46.804106362479473 ] } },
{ "type": "Feature", "properties": { "Nom": "Bouffard / Napoléon", "Fermeture": "4" }, "geometry": { "type": "Point", "coordinates": [ -71.242550617266843, 46.806651969811213 ] } },
{ "type": "Feature", "properties": { "Nom": "Église de Saint-Sauveur", "Fermeture": "6" }, "geometry": { "type": "Point", "coordinates": [ -71.235951544287431, 46.811191926498353 ] } },
{ "type": "Feature", "properties": { "Nom": "Lapointe / Du Général-Allard", "Fermeture": "5" }, "geometry": { "type": "Point", "coordinates": [ -71.279599574174611, 46.770343292467139 ] } },
{ "type": "Feature", "properties": { "Nom": "Charles / De Bergerville", "Fermeture": "5" }, "geometry": { "type": "Point", "coordinates": [ -71.247627630406441, 46.782745155535487 ] } },
{ "type": "Feature", "properties": { "Nom": "Louis-Fréchette / De Callières", "Fermeture": "5" }, "geometry": { "type": "Point", "coordinates": [ -71.247113951197733, 46.794699606764411 ] } },
{ "type": "Feature", "properties": { "Nom": "Brown / Grande Allée O.", "Fermeture": "5" }, "geometry": { "type": "Point", "coordinates": [ -71.231792005008472, 46.797788026725641 ] } }
]
}
