{
"type": "FeatureCollection",
"name": "Zone de prolongation",
"crs": { "type": "name", "properties": { "name": "urn:ogc:def:crs:OGC:1.3:CRS84" } },
"features": [
{ "type": "Feature", "properties": { "id": 1 }, "geometry": { "type": "MultiPolygon", "coordinates": [ [ [ [ -71.282118948789602, 46.769087963340127 ], [ -71.286618377429988, 46.772386967402845 ], [ -71.279009423758751, 46.77671895737442 ], [ -71.290136336073758, 46.785471418831882 ], [ -71.275936228382349, 46.791503145731944 ], [ -71.269078813944546, 46.794205268371002 ], [ -71.261483742909547, 46.796474819827132 ], [ -71.250175874783011, 46.799259963939562 ], [ -71.242250537124804, 46.803463264280531 ], [ -71.251261351961773, 46.81134994079072 ], [ -71.25090761500698, 46.811747886972547 ], [ -71.249155159164573, 46.815914145249508 ], [ -71.254331247707626, 46.821700778984791 ], [ -71.24772234339072, 46.830762569115286 ], [ -71.253821297021275, 46.837722712072406 ], [ -71.239561603656156, 46.844006721879069 ], [ -71.235742282267069, 46.84022571359197 ], [ -71.223116398257829, 46.845138923543402 ], [ -71.212277303731341, 46.83638670339959 ], [ -71.22111121206666, 46.829705759490018 ], [ -71.222323484261068, 46.826855804056223 ], [ -71.216369634432084, 46.820338174526455 ], [ -71.207228173491856, 46.818850830924852 ], [ -71.199371756819886, 46.816857118833745 ], [ -71.20043345024331, 46.812952098510536 ], [ -71.202365113307678, 46.810214798113186 ], [ -71.207958891255601, 46.808946744484423 ], [ -71.21244263745983, 46.805209714880611 ], [ -71.221383787452709, 46.800653004628074 ], [ -71.230289348097742, 46.795686597612658 ], [ -71.240058901720104, 46.790848788321533 ], [ -71.249179611378779, 46.786053311648438 ], [ -71.264694639045146, 46.778119850499287 ], [ -71.282118948789602, 46.769087963340127 ] ] ] ] } }
]
}
